{
  "type": "FeatureCollection",
  "features": [
    {
      "type": "Feature",
      "properties": {
        "norad_id": 33972,
        "name": "COSMOS 2251 DEB",
        "group": "cosmos-2251-debris",
        "lat": 9.897635614538741,
        "lon": 21.459884803251764,
        "alt_km": 852.5400606585363,
        "timestamp": "2025-12-05T07:38:19.238465+00:00",
        "meta_object_name": "COSMOS 2251 DEB",
        "meta_object_id": "1993-036FF",
        "meta_epoch": "2025-12-04T09:56:51.706176",
        "meta_mean_motion": 14.36133138,
        "meta_eccentricity": 0.0122984,
        "meta_inclination": 73.9946,
        "meta_ra_of_asc_node": 205.9942,
        "meta_arg_of_pericenter": 15.605,
        "meta_mean_anomaly": 162.5803,
        "meta_ephemeris_type": 0,
        "meta_classification_type": "U",
        "meta_norad_cat_id": 33972,
        "meta_element_set_no": 999,
        "meta_rev_at_epoch": 86954,
        "meta_bstar": 0.0026334,
        "meta_mean_motion_dot": 8.346e-05,
        "meta_mean_motion_ddot": 0,
        "tle_line1": "1 33972U 93036FF  25338.41448734  .00008346  00000+0  26334-2 0  9991",
        "tle_line2": "2 33972  73.9946 205.9942 0122984  15.6050 162.5803 14.36133138869548"
      },
      "geometry": {
        "type": "Point",
        "coordinates": [
          21.459884803251764,
          9.897635614538741
        ]
      }
    },
    {
      "type": "Feature",
      "properties": {
        "norad_id": 33973,
        "name": "COSMOS 2251 DEB",
        "group": "cosmos-2251-debris",
        "lat": 33.09621511625662,
        "lon": 127.52320615829515,
        "alt_km": 743.0284756356596,
        "timestamp": "2025-12-05T07:38:19.238475+00:00",
        "meta_object_name": "COSMOS 2251 DEB",
        "meta_object_id": "1993-036FG",
        "meta_epoch": "2025-12-04T16:35:57.994080",
        "meta_mean_motion": 14.45377025,
        "meta_eccentricity": 0.0047166,
        "meta_inclination": 74.0073,
        "meta_ra_of_asc_node": 117.919,
        "meta_arg_of_pericenter": 297.833,
        "meta_mean_anomaly": 77.0505,
        "meta_ephemeris_type": 0,
        "meta_classification_type": "U",
        "meta_norad_cat_id": 33973,
        "meta_element_set_no": 999,
        "meta_rev_at_epoch": 88484,
        "meta_bstar": 0.00028109,
        "meta_mean_motion_dot": 9.74e-06,
        "meta_mean_motion_ddot": 0,
        "tle_line1": "1 33973U 93036FG  25338.69164345  .00000974  00000+0  28109-3 0  9997",
        "tle_line2": "2 33973  74.0073 117.9190 0047166 297.8330  77.0505 14.45377025884846"
      },
      "geometry": {
        "type": "Point",
        "coordinates": [
          127.52320615829515,
          33.09621511625662
        ]
      }
    },
    {
      "type": "Feature",
      "properties": {
        "norad_id": 33975,
        "name": "COSMOS 2251 DEB",
        "group": "cosmos-2251-debris",
        "lat": 73.72580431945998,
        "lon": -167.2066283545096,
        "alt_km": 990.2230200229269,
        "timestamp": "2025-12-05T07:38:19.238486+00:00",
        "meta_object_name": "COSMOS 2251 DEB",
        "meta_object_id": "1993-036FJ",
        "meta_epoch": "2025-12-04T14:02:42.296064",
        "meta_mean_motion": 14.00495913,
        "meta_eccentricity": 0.0191456,
        "meta_inclination": 73.8012,
        "meta_ra_of_asc_node": 98.7865,
        "meta_arg_of_pericenter": 232.9205,
        "meta_mean_anomaly": 125.4293,
        "meta_ephemeris_type": 0,
        "meta_classification_type": "U",
        "meta_norad_cat_id": 33975,
        "meta_element_set_no": 999,
        "meta_rev_at_epoch": 85715,
        "meta_bstar": 0.0012657,
        "meta_mean_motion_dot": 2.176e-05,
        "meta_mean_motion_ddot": 0,
        "tle_line1": "1 33975U 93036FJ  25338.58521176  .00002176  00000+0  12657-2 0  9992",
        "tle_line2": "2 33975  73.8012  98.7865 0191456 232.9205 125.4293 14.00495913857150"
      },
      "geometry": {
        "type": "Point",
        "coordinates": [
          -167.2066283545096,
          73.72580431945998
        ]
      }
    },
    {
      "type": "Feature",
      "properties": {
        "norad_id": 33980,
        "name": "COSMOS 2251 DEB",
        "group": "cosmos-2251-debris",
        "lat": 1.6919043306970267,
        "lon": -106.94490354523579,
        "alt_km": 684.7584859919461,
        "timestamp": "2025-12-05T07:38:19.238496+00:00",
        "meta_object_name": "COSMOS 2251 DEB",
        "meta_object_id": "1993-036FP",
        "meta_epoch": "2025-12-04T16:33:33.960096",
        "meta_mean_motion": 14.58563526,
        "meta_eccentricity": 0.0029136,
        "meta_inclination": 74.022,
        "meta_ra_of_asc_node": 74.7367,
        "meta_arg_of_pericenter": 221.1069,
        "meta_mean_anomaly": 259.4741,
        "meta_ephemeris_type": 0,
        "meta_classification_type": "U",
        "meta_norad_cat_id": 33980,
        "meta_element_set_no": 999,
        "meta_rev_at_epoch": 88677,
        "meta_bstar": 0.0018395,
        "meta_mean_motion_dot": 8.587e-05,
        "meta_mean_motion_ddot": 0,
        "tle_line1": "1 33980U 93036FP  25338.68997639  .00008587  00000+0  18395-2 0  9997",
        "tle_line2": "2 33980  74.0220  74.7367 0029136 221.1069 259.4741 14.58563526886779"
      },
      "geometry": {
        "type": "Point",
        "coordinates": [
          -106.94490354523579,
          1.6919043306970267
        ]
      }
    },
    {
      "type": "Feature",
      "properties": {
        "norad_id": 33982,
        "name": "COSMOS 2251 DEB",
        "group": "cosmos-2251-debris",
        "lat": -9.544312891079825,
        "lon": 11.322999767397665,
        "alt_km": 678.4587763010977,
        "timestamp": "2025-12-05T07:38:19.238506+00:00",
        "meta_object_name": "COSMOS 2251 DEB",
        "meta_object_id": "1993-036FR",
        "meta_epoch": "2025-12-04T12:31:59.210112",
        "meta_mean_motion": 14.6016725,
        "meta_eccentricity": 0.0074834,
        "meta_inclination": 74.0712,
        "meta_ra_of_asc_node": 15.591,
        "meta_arg_of_pericenter": 62.484,
        "meta_mean_anomaly": 65.6296,
        "meta_ephemeris_type": 0,
        "meta_classification_type": "U",
        "meta_norad_cat_id": 33982,
        "meta_element_set_no": 999,
        "meta_rev_at_epoch": 89039,
        "meta_bstar": 0.00074523,
        "meta_mean_motion_dot": 3.705e-05,
        "meta_mean_motion_ddot": 0,
        "tle_line1": "1 33982U 93036FR  25338.52221308  .00003705  00000+0  74523-3 0  9998",
        "tle_line2": "2 33982  74.0712  15.5910 0074834  62.4840  65.6296 14.60167250890394"
      },
      "geometry": {
        "type": "Point",
        "coordinates": [
          11.322999767397665,
          -9.544312891079825
        ]
      }
    },
    {
      "type": "Feature",
      "properties": {
        "norad_id": 33983,
        "name": "COSMOS 2251 DEB",
        "group": "cosmos-2251-debris",
        "lat": 2.4125415273287087,
        "lon": -19.706075337362687,
        "alt_km": 725.1586065544216,
        "timestamp": "2025-12-05T07:38:19.238516+00:00",
        "meta_object_name": "COSMOS 2251 DEB",
        "meta_object_id": "1993-036FS",
        "meta_epoch": "2025-12-04T14:33:03.326400",
        "meta_mean_motion": 14.5061823,
        "meta_eccentricity": 0.0021404,
        "meta_inclination": 74.0487,
        "meta_ra_of_asc_node": 162.3211,
        "meta_arg_of_pericenter": 266.1407,
        "meta_mean_anomaly": 154.8182,
        "meta_ephemeris_type": 0,
        "meta_classification_type": "U",
        "meta_norad_cat_id": 33983,
        "meta_element_set_no": 999,
        "meta_rev_at_epoch": 88511,
        "meta_bstar": 0.0010245,
        "meta_mean_motion_dot": 4.006e-05,
        "meta_mean_motion_ddot": 0,
        "tle_line1": "1 33983U 93036FS  25338.60628850  .00004006  00000+0  10245-2 0  9996",
        "tle_line2": "2 33983  74.0487 162.3211 0021404 266.1407 154.8182 14.50618230885113"
      },
      "geometry": {
        "type": "Point",
        "coordinates": [
          -19.706075337362687,
          2.4125415273287087
        ]
      }
    },
    {
      "type": "Feature",
      "properties": {
        "norad_id": 33984,
        "name": "COSMOS 2251 DEB",
        "group": "cosmos-2251-debris",
        "lat": -43.217887224126805,
        "lon": -162.93529915267163,
        "alt_km": 664.1040713014072,
        "timestamp": "2025-12-05T07:38:19.238526+00:00",
        "meta_object_name": "COSMOS 2251 DEB",
        "meta_object_id": "1993-036FT",
        "meta_epoch": "2025-12-04T13:19:09.503040",
        "meta_mean_motion": 14.6625143,
        "meta_eccentricity": 0.0023596,
        "meta_inclination": 74.0094,
        "meta_ra_of_asc_node": 2.9059,
        "meta_arg_of_pericenter": 203.0595,
        "meta_mean_anomaly": 314.6914,
        "meta_ephemeris_type": 0,
        "meta_classification_type": "U",
        "meta_norad_cat_id": 33984,
        "meta_element_set_no": 999,
        "meta_rev_at_epoch": 88946,
        "meta_bstar": 0.0019027,
        "meta_mean_motion_dot": 0.00010514,
        "meta_mean_motion_ddot": 0,
        "tle_line1": "1 33984U 93036FT  25338.55497110  .00010514  00000+0  19027-2 0  9992",
        "tle_line2": "2 33984  74.0094   2.9059 0023596 203.0595 314.6914 14.66251430889462"
      },
      "geometry": {
        "type": "Point",
        "coordinates": [
          -162.93529915267163,
          -43.217887224126805
        ]
      }
    }
  ]
}